ONEWEB-0102             
1 47258U 20100A   25206.53474966 -.00000356  00000+0 -10239-2 0  9990
2 47258  87.8852  55.6294 0001704  79.7718 280.3603 13.12442162221887
ONEWEB-0109             
1 47259U 20100B   25206.31415456 -.00000231  00000+0 -67706-3 0  9990
2 47259  87.8854  55.6433 0001763  80.6889 279.4438 13.12442540221683
ONEWEB-0110             
1 47260U 20100C   25206.95001826  .00000330  00000+0  88180-3 0  9991
2 47260  87.8850  55.4989 0002038  82.0639 278.0720 13.12442196221934
ONEWEB-0111             
1 47261U 20100D   25206.52339734 -.00000286  00000+0 -82950-3 0  9998
2 47261  87.8855  55.6000 0001764  83.8935 276.2394 13.12441439221711
ONEWEB-0114             
1 47262U 20100E   25206.47798537  .00000215  00000+0  56120-3 0  9993
2 47262  87.8846  55.6074 0001572  76.6560 283.4744 13.12448803221669
ONEWEB-0117             
1 47263U 20100F   25206.08869185 -.00000033  00000+0 -12768-3 0  9999
2 47263  87.8859  55.6781 0001796  85.2058 274.9276 13.12443976221622
ONEWEB-0118             
1 47264U 20100G   25206.50232273  .00000317  00000+0  84486-3 0  9998
2 47264  87.8850  55.5963 0001390  85.7381 274.3907 13.12441790221873
ONEWEB-0119             
1 47265U 20100H   25206.52989432 -.00000348  00000+0 -10019-2 0  9993
2 47265  87.8852  55.6295 0001793  83.5335 276.5998 13.12442352221854
